{"type": "FeatureCollection", "features": [ {"type": "Feature", "properties": {"norad_id": 66819, "name": "STARLINK-35989", "group": "last-30-days", "lat": -24.993334354068736, "lon": 35.9839597692597, "alt_km": 416.73581985298097, "timestamp": "2025-12-23T16:57:11.061950+00:00", "meta": {"OBJECT_NAME": "STARLINK-35989", "OBJECT_ID": "2025-278AE", "EPOCH": "2025-12-23T06:00:00.999648", "MEAN_MOTION": 15.50539216, "ECCENTRICITY": 0.00016861, "INCLINATION": 43, "RA_OF_ASC_NODE": 188.6367, "ARG_OF_PERICENTER": 267.598, "MEAN_ANOMALY": 280.1606, "EPHEMERIS_TYPE": 0, "CLASSIFICATION_TYPE": "U", "NORAD_CAT_ID": 66819, "ELEMENT_SET_NO": 999, "REV_AT_EPOCH": 464, "BSTAR": 0.0004726637, "MEAN_MOTION_DOT": 0.00027445, "MEAN_MOTION_DDOT": 0}, "tle": {"line1": "1 66819U 25278AE  25357.25001157  .00027445  00000+0  47266-3 0  9996", "line2": "2 66819  43.0000 188.6367 0001686 267.5980 280.1606 15.50539216  4640"}}, "geometry": {"type": "Point", "coordinates": [35.9839597692597, -24.993334354068736]}}, {"type": "Feature", "properties": {"norad_id": 66820, "name": "KOMPSAT-7", "group": "last-30-days", "lat": 39.47241751022523, "lon": 129.73321170561476, "alt_km": 561.4157321718121, "timestamp": "2025-12-23T16:57:11.061961+00:00", "meta": {"OBJECT_NAME": "KOMPSAT-7", "OBJECT_ID": "2025-279A", "EPOCH": "2025-12-23T06:43:42.486240", "MEAN_MOTION": 15.00661266, "ECCENTRICITY": 0.00111458, "INCLINATION": 97.6455, "RA_OF_ASC_NODE": 302.963, "ARG_OF_PERICENTER": 228.1521, "MEAN_ANOMALY": 131.8752, "EPHEMERIS_TYPE": 0, "CLASSIFICATION_TYPE": "U", "NORAD_CAT_ID": 66820, "ELEMENT_SET_NO": 999, "REV_AT_EPOCH": 323, "BSTAR": 0.00024771214, "MEAN_MOTION_DOT": 3.078e-05, "MEAN_MOTION_DDOT": 0}, "tle": {"line1": "1 66820U 25279A   25357.28035285  .00003078  00000+0  24771-3 0  9993", "line2": "2 66820  97.6455 302.9630 0011145 228.1521 131.8752 15.00661266  3234"}}, "geometry": {"type": "Point", "coordinates": [129.73321170561476, 39.47241751022523]}}, {"type": "Feature", "properties": {"norad_id": 66821, "name": "STARLINK-35966", "group": "last-30-days", "lat": 68.74201342077305, "lon": -122.19589316640464, "alt_km": 403.97273737499927, "timestamp": "2025-12-23T16:57:11.061971+00:00", "meta": {"OBJECT_NAME": "STARLINK-35966", "OBJECT_ID": "2025-280A", "EPOCH": "2025-12-23T01:08:07.728288", "MEAN_MOTION": 15.52532634, "ECCENTRICITY": 0.00032817, "INCLINATION": 70.0005, "RA_OF_ASC_NODE": 170.1845, "ARG_OF_PERICENTER": 274.403, "MEAN_ANOMALY": 85.6782, "EPHEMERIS_TYPE": 0, "CLASSIFICATION_TYPE": "U", "NORAD_CAT_ID": 66821, "ELEMENT_SET_NO": 999, "REV_AT_EPOCH": 453, "BSTAR": 0.0010895255, "MEAN_MOTION_DOT": 0.00067465, "MEAN_MOTION_DDOT": 0}, "tle": {"line1": "1 66821U 25280A   25357.04731167  .00067465  00000+0  10895-2 0  9993", "line2": "2 66821  70.0005 170.1845 0003281 274.4030  85.6782 15.52532634  4531"}}, "geometry": {"type": "Point", "coordinates": [-122.19589316640464, 68.74201342077305]}}, {"type": "Feature", "properties": {"norad_id": 66822, "name": "STARLINK-35958", "group": "last-30-days", "lat": 69.30704446690483, "lon": -116.98640918844906, "alt_km": 403.8893586890572, "timestamp": "2025-12-23T16:57:11.061983+00:00", "meta": {"OBJECT_NAME": "STARLINK-35958", "OBJECT_ID": "2025-280B", "EPOCH": "2025-12-23T01:07:38.108640", "MEAN_MOTION": 15.52537146, "ECCENTRICITY": 0.00032844, "INCLINATION": 70.0002, "RA_OF_ASC_NODE": 170.1839, "ARG_OF_PERICENTER": 271.4121, "MEAN_ANOMALY": 88.6689, "EPHEMERIS_TYPE": 0, "CLASSIFICATION_TYPE": "U", "NORAD_CAT_ID": 66822, "ELEMENT_SET_NO": 999, "REV_AT_EPOCH": 453, "BSTAR": 0.0013154544, "MEAN_MOTION_DOT": 0.00081649, "MEAN_MOTION_DDOT": 0}, "tle": {"line1": "1 66822U 25280B   25357.04696885  .00081649  00000+0  13155-2 0  9993", "line2": "2 66822  70.0002 170.1839 0003284 271.4121  88.6689 15.52537146  4535"}}, "geometry": {"type": "Point", "coordinates": [-116.98640918844906, 69.30704446690483]}}, {"type": "Feature", "properties": {"norad_id": 66823, "name": "STARLINK-35957", "group": "last-30-days", "lat": 69.70496743132291, "lon": -111.59337886732658, "alt_km": 403.77932067842994, "timestamp": "2025-12-23T16:57:11.061995+00:00", "meta": {"OBJECT_NAME": "STARLINK-35957", "OBJECT_ID": "2025-280C", "EPOCH": "2025-12-23T04:12:42.013728", "MEAN_MOTION": 15.52555397, "ECCENTRICITY": 0.00032588, "INCLINATION": 70.0001, "RA_OF_ASC_NODE": 169.829, "ARG_OF_PERICENTER": 273.1571, "MEAN_ANOMALY": 86.9243, "EPHEMERIS_TYPE": 0, "CLASSIFICATION_TYPE": "U", "NORAD_CAT_ID": 66823, "ELEMENT_SET_NO": 999, "REV_AT_EPOCH": 455, "BSTAR": 0.0016738141, "MEAN_MOTION_DOT": 0.00104304, "MEAN_MOTION_DDOT": 0}, "tle": {"line1": "1 66823U 25280C   25357.17548627  .00104304  00000+0  16738-2 0  9992", "line2": "2 66823  70.0001 169.8290 0003258 273.1571  86.9243 15.52555397  4557"}}, "geometry": {"type": "Point", "coordinates": [-111.59337886732658, 69.70496743132291]}}, {"type": "Feature", "properties": {"norad_id": 66824, "name": "STARLINK-35896", "group": "last-30-days", "lat": 69.93181807577733, "lon": -106.05220561256995, "alt_km": 403.82618072597415, "timestamp": "2025-12-23T16:57:11.062005+00:00", "meta": {"OBJECT_NAME": "STARLINK-35896", "OBJECT_ID": "2025-280D", "EPOCH": "2025-12-23T04:12:12.382848", "MEAN_MOTION": 15.5255379, "ECCENTRICITY": 0.00034014, "INCLINATION": 70.0001, "RA_OF_ASC_NODE": 169.8276, "ARG_OF_PERICENTER": 277.7523, "MEAN_ANOMALY": 82.3278, "EPHEMERIS_TYPE": 0, "CLASSIFICATION_TYPE": "U", "NORAD_CAT_ID": 66824, "ELEMENT_SET_NO": 999, "REV_AT_EPOCH": 455, "BSTAR": 0.0017963199, "MEAN_MOTION_DOT": 0.00112055, "MEAN_MOTION_DDOT": 0}, "tle": {"line1": "1 66824U 25280D   25357.17514332  .00112055  00000+0  17963-2 0  9992", "line2": "2 66824  70.0001 169.8276 0003401 277.7523  82.3278 15.52553790  4552"}}, "geometry": {"type": "Point", "coordinates": [-106.05220561256995, 69.93181807577733]}}, {"type": "Feature", "properties": {"norad_id": 66825, "name": "STARLINK-35476", "group": "last-30-days", "lat": 69.98405299919561, "lon": -100.58908239522749, "alt_km": 403.93878691393184, "timestamp": "2025-12-23T16:57:11.062015+00:00", "meta": {"OBJECT_NAME": "STARLINK-35476", "OBJECT_ID": "2025-280E", "EPOCH": "2025-12-23T01:06:09.124416", "MEAN_MOTION": 15.52534124, "ECCENTRICITY": 0.00033302, "INCLINATION": 70.0003, "RA_OF_ASC_NODE": 170.1793, "ARG_OF_PERICENTER": 268.8003, "MEAN_ANOMALY": 91.2803, "EPHEMERIS_TYPE": 0, "CLASSIFICATION_TYPE": "U", "NORAD_CAT_ID": 66825, "ELEMENT_SET_NO": 999, "REV_AT_EPOCH": 453, "BSTAR": 0.0010653182, "MEAN_MOTION_DOT": 0.00065954, "MEAN_MOTION_DDOT": 0}, "tle": {"line1": "1 66825U 25280E   25357.04593894  .00065954  00000+0  10653-2 0  9993", "line2": "2 66825  70.0003 170.1793 0003330 268.8003  91.2803 15.52534124  4530"}}, "geometry": {"type": "Point", "coordinates": [-100.58908239522749, 69.98405299919561]}}, {"type": "Feature", "properties": {"norad_id": 66826, "name": "STARLINK-35898", "group": "last-30-days", "lat": 69.86836235376836, "lon": -95.14234206991397, "alt_km": 404.0371163052596, "timestamp": "2025-12-23T16:57:11.062025+00:00", "meta": {"OBJECT_NAME": "STARLINK-35898", "OBJECT_ID": "2025-280F", "EPOCH": "2025-12-23T02:38:26.255040", "MEAN_MOTION": 15.52533092, "ECCENTRICITY": 0.00033166, "INCLINATION": 70.0003, "RA_OF_ASC_NODE": 170.0009, "ARG_OF_PERICENTER": 273.2097, "MEAN_ANOMALY": 86.871, "EPHEMERIS_TYPE": 0, "CLASSIFICATION_TYPE": "U", "NORAD_CAT_ID": 66826, "ELEMENT_SET_NO": 999, "REV_AT_EPOCH": 454, "BSTAR": 0.00072900905, "MEAN_MOTION_DOT": 0.00044959, "MEAN_MOTION_DDOT": 0}, "tle": {"line1": "1 66826U 25280F   25357.11002610  .00044959  00000+0  72901-3 0  9990", "line2": "2 66826  70.0003 170.0009 0003316 273.2097  86.8710 15.52533092  4548"}}, "geometry": {"type": "Point", "coordinates": [-95.14234206991397, 69.86836235376836]}}, {"type": "Feature", "properties": {"norad_id": 66827, "name": "STARLINK-35959", "group": "last-30-days", "lat": 69.55603275204723, "lon": -89.34398775715685, "alt_km": 403.9043326590272, "timestamp": "2025-12-23T16:57:11.062049+00:00", "meta": {"OBJECT_NAME": "STARLINK-35959", "OBJECT_ID": "2025-280G", "EPOCH": "2025-12-23T02:37:56.313984", "MEAN_MOTION": 15.52566249, "ECCENTRICITY": 0.00033159, "INCLINATION": 70.0002, "RA_OF_ASC_NODE": 169.9998, "ARG_OF_PERICENTER": 274.8108, "MEAN_ANOMALY": 85.27, "EPHEMERIS_TYPE": 0, "CLASSIFICATION_TYPE": "U", "NORAD_CAT_ID": 66827, "ELEMENT_SET_NO": 999, "REV_AT_EPOCH": 454, "BSTAR": 0.0010242525, "MEAN_MOTION_DOT": 0.00063458, "MEAN_MOTION_DDOT": 0}, "tle": {"line1": "1 66827U 25280G   25357.10967956  .00063458  00000+0  10243-2 0  9998", "line2": "2 66827  70.0002 169.9998 0003315 274.8108  85.2700 15.52566249  4543"}}, "geometry": {"type": "Point", "coordinates": [-89.34398775715685, 69.55603275204723]}}, {"type": "Feature", "properties": {"norad_id": 66828, "name": "STARLINK-35982", "group": "last-30-days", "lat": 68.49291272318199, "lon": -79.20396888678414, "alt_km": 403.96546238490464, "timestamp": "2025-12-23T16:57:11.062060+00:00", "meta": {"OBJECT_NAME": "STARLINK-35982", "OBJECT_ID": "2025-280H", "EPOCH": "2025-12-23T04:09:44.140320", "MEAN_MOTION": 15.52547724, "ECCENTRICITY": 0.00032526, "INCLINATION": 70.0001, "RA_OF_ASC_NODE": 169.8206, "ARG_OF_PERICENTER": 276.1042, "MEAN_ANOMALY": 83.9775, "EPHEMERIS_TYPE": 0, "CLASSIFICATION_TYPE": "U", "NORAD_CAT_ID": 66828, "ELEMENT_SET_NO": 999, "REV_AT_EPOCH": 455, "BSTAR": 0.0013542018, "MEAN_MOTION_DOT": 0.00084117, "MEAN_MOTION_DDOT": 0}, "tle": {"line1": "1 66828U 25280H   25357.17342755  .00084117  00000+0  13542-2 0  9990", "line2": "2 66828  70.0001 169.8206 0003252 276.1042  83.9775 15.52547724  4551"}}, "geometry": {"type": "Point", "coordinates": [-79.20396888678414, 68.49291272318199]}}]}